{
  "type": "FeatureCollection",
  "features": [
    {
      "type": "Feature",
      "properties": {
        "norad_id": 35038,
        "name": "COSMOS 2251 DEB",
        "group": "cosmos-2251-debris",
        "lat": 62.812884207627455,
        "lon": -178.5783092562122,
        "alt_km": 807.0115896421885,
        "timestamp": "2025-12-16T21:38:57.571196+00:00",
        "meta_object_name": "COSMOS 2251 DEB",
        "meta_object_id": "1993-036AHB",
        "meta_epoch": "2025-12-16T02:43:57.942048",
        "meta_mean_motion": 14.25166694,
        "meta_eccentricity": 0.01140711,
        "meta_inclination": 74.1077,
        "meta_ra_of_asc_node": 36.5236,
        "meta_arg_of_pericenter": 19.3791,
        "meta_mean_anomaly": 9.3469,
        "meta_ephemeris_type": 0,
        "meta_classification_type": "U",
        "meta_norad_cat_id": 35038,
        "meta_element_set_no": 999,
        "meta_rev_at_epoch": 85617,
        "meta_bstar": 0.00096319549,
        "meta_mean_motion_dot": 2.397e-05,
        "meta_mean_motion_ddot": 0,
        "tle_line1": "1 35038U 93036AHB 25350.11386507  .00002397  00000+0  96320-3 0  9999",
        "tle_line2": "2 35038  74.1077  36.5236 0114071  19.3791   9.3469 14.25166694856178"
      },
      "geometry": {
        "type": "Point",
        "coordinates": [
          -178.5783092562122,
          62.812884207627455
        ]
      }
    },
    {
      "type": "Feature",
      "properties": {
        "norad_id": 35043,
        "name": "COSMOS 2251 DEB",
        "group": "cosmos-2251-debris",
        "lat": 8.3741253333625,
        "lon": 39.80003134906996,
        "alt_km": 676.0003433953525,
        "timestamp": "2025-12-16T21:38:57.571206+00:00",
        "meta_object_name": "COSMOS 2251 DEB",
        "meta_object_id": "1993-036AHG",
        "meta_epoch": "2025-12-15T19:36:09.229536",
        "meta_mean_motion": 14.77121808,
        "meta_eccentricity": 0.00962449,
        "meta_inclination": 73.9502,
        "meta_ra_of_asc_node": 39.5099,
        "meta_arg_of_pericenter": 248.3461,
        "meta_mean_anomaly": 110.7443,
        "meta_ephemeris_type": 0,
        "meta_classification_type": "U",
        "meta_norad_cat_id": 35043,
        "meta_element_set_no": 999,
        "meta_rev_at_epoch": 67464,
        "meta_bstar": 0.0021635766,
        "meta_mean_motion_dot": 0.00016517,
        "meta_mean_motion_ddot": 0,
        "tle_line1": "1 35043U 93036AHG 25349.81677349  .00016517  00000+0  21636-2 0  9993",
        "tle_line2": "2 35043  73.9502  39.5099 0096244 248.3461 110.7443 14.77121808674647"
      },
      "geometry": {
        "type": "Point",
        "coordinates": [
          39.80003134906996,
          8.3741253333625
        ]
      }
    },
    {
      "type": "Feature",
      "properties": {
        "norad_id": 35045,
        "name": "COSMOS 2251 DEB",
        "group": "cosmos-2251-debris",
        "lat": 51.084007959230874,
        "lon": -155.86671508728745,
        "alt_km": 1013.3846569937687,
        "timestamp": "2025-12-16T21:38:57.571216+00:00",
        "meta_object_name": "COSMOS 2251 DEB",
        "meta_object_id": "1993-036AHJ",
        "meta_epoch": "2025-12-15T10:44:56.343840",
        "meta_mean_motion": 14.00391051,
        "meta_eccentricity": 0.01837483,
        "meta_inclination": 73.7197,
        "meta_ra_of_asc_node": 47.9208,
        "meta_arg_of_pericenter": 289.5539,
        "meta_mean_anomaly": 68.5833,
        "meta_ephemeris_type": 0,
        "meta_classification_type": "U",
        "meta_norad_cat_id": 35045,
        "meta_element_set_no": 999,
        "meta_rev_at_epoch": 84681,
        "meta_bstar": 0.00065789188,
        "meta_mean_motion_dot": 1.1e-05,
        "meta_mean_motion_ddot": 0,
        "tle_line1": "1 35045U 93036AHJ 25349.44787435  .00001100  00000+0  65789-3 0  9992",
        "tle_line2": "2 35045  73.7197  47.9208 0183748 289.5539  68.5833 14.00391051846819"
      },
      "geometry": {
        "type": "Point",
        "coordinates": [
          -155.86671508728745,
          51.084007959230874
        ]
      }
    },
    {
      "type": "Feature",
      "properties": {
        "norad_id": 35060,
        "name": "COSMOS 2251 DEB",
        "group": "cosmos-2251-debris",
        "lat": -64.54152140797254,
        "lon": -160.33729083558498,
        "alt_km": 748.7954190921682,
        "timestamp": "2025-12-16T21:38:57.571226+00:00",
        "meta_object_name": "COSMOS 2251 DEB",
        "meta_object_id": "1993-036AHP",
        "meta_epoch": "2025-12-12T09:42:56.373696",
        "meta_mean_motion": 14.4159863,
        "meta_eccentricity": 0.00185395,
        "meta_inclination": 74.0367,
        "meta_ra_of_asc_node": 244.9485,
        "meta_arg_of_pericenter": 331.3845,
        "meta_mean_anomaly": 28.6291,
        "meta_ephemeris_type": 0,
        "meta_classification_type": "U",
        "meta_norad_cat_id": 35060,
        "meta_element_set_no": 999,
        "meta_rev_at_epoch": 87237,
        "meta_bstar": 0.00047553365,
        "meta_mean_motion_dot": 1.524e-05,
        "meta_mean_motion_ddot": 0,
        "tle_line1": "1 35060U 93036AHP 25346.40481914  .00001524  00000+0  47553-3 0  9994",
        "tle_line2": "2 35060  74.0367 244.9485 0018539 331.3845  28.6291 14.41598630872378"
      },
      "geometry": {
        "type": "Point",
        "coordinates": [
          -160.33729083558498,
          -64.54152140797254
        ]
      }
    },
    {
      "type": "Feature",
      "properties": {
        "norad_id": 35061,
        "name": "COSMOS 2251 DEB",
        "group": "cosmos-2251-debris",
        "lat": -26.371078544111526,
        "lon": 125.83920366244764,
        "alt_km": 699.2565136299481,
        "timestamp": "2025-12-16T21:38:57.571236+00:00",
        "meta_object_name": "COSMOS 2251 DEB",
        "meta_object_id": "1993-036AHQ",
        "meta_epoch": "2025-12-16T02:43:00.799680",
        "meta_mean_motion": 14.67857584,
        "meta_eccentricity": 0.00392707,
        "meta_inclination": 74.0455,
        "meta_ra_of_asc_node": 299.2082,
        "meta_arg_of_pericenter": 49.0905,
        "meta_mean_anomaly": 311.3654,
        "meta_ephemeris_type": 0,
        "meta_classification_type": "U",
        "meta_norad_cat_id": 35061,
        "meta_element_set_no": 999,
        "meta_rev_at_epoch": 88624,
        "meta_bstar": 0.00056925781,
        "meta_mean_motion_dot": 3.26e-05,
        "meta_mean_motion_ddot": 0,
        "tle_line1": "1 35061U 93036AHQ 25350.11320370  .00003260  00000+0  56926-3 0  9999",
        "tle_line2": "2 35061  74.0455 299.2082 0039270  49.0905 311.3654 14.67857584886248"
      },
      "geometry": {
        "type": "Point",
        "coordinates": [
          125.83920366244764,
          -26.371078544111526
        ]
      }
    },
    {
      "type": "Feature",
      "properties": {
        "norad_id": 35062,
        "name": "COSMOS 2251 DEB",
        "group": "cosmos-2251-debris",
        "lat": -46.94577351807711,
        "lon": 67.99656815669327,
        "alt_km": 884.7068264441978,
        "timestamp": "2025-12-16T21:38:57.571247+00:00",
        "meta_object_name": "COSMOS 2251 DEB",
        "meta_object_id": "1993-036AHR",
        "meta_epoch": "2025-12-10T15:42:45.436320",
        "meta_mean_motion": 14.22906612,
        "meta_eccentricity": 0.01275957,
        "meta_inclination": 74.0784,
        "meta_ra_of_asc_node": 96.9836,
        "meta_arg_of_pericenter": 97.3041,
        "meta_mean_anomaly": 264.2628,
        "meta_ephemeris_type": 0,
        "meta_classification_type": "U",
        "meta_norad_cat_id": 35062,
        "meta_element_set_no": 999,
        "meta_rev_at_epoch": 85469,
        "meta_bstar": 0.0028656551,
        "meta_mean_motion_dot": 6.986e-05,
        "meta_mean_motion_ddot": 0,
        "tle_line1": "1 35062U 93036AHR 25344.65469255  .00006986  00000+0  28657-2 0  9995",
        "tle_line2": "2 35062  74.0784  96.9836 0127595  97.3041 264.2628 14.22906612854697"
      },
      "geometry": {
        "type": "Point",
        "coordinates": [
          67.99656815669327,
          -46.94577351807711
        ]
      }
    },
    {
      "type": "Feature",
      "properties": {
        "norad_id": 35065,
        "name": "COSMOS 2251 DEB",
        "group": "cosmos-2251-debris",
        "lat": -19.478376431497995,
        "lon": -179.2503861214195,
        "alt_km": 731.9528673749983,
        "timestamp": "2025-12-16T21:38:57.571257+00:00",
        "meta_object_name": "COSMOS 2251 DEB",
        "meta_object_id": "1993-036AHU",
        "meta_epoch": "2025-12-15T07:32:45.576096",
        "meta_mean_motion": 14.45733893,
        "meta_eccentricity": 0.00199052,
        "meta_inclination": 74.019,
        "meta_ra_of_asc_node": 189.5298,
        "meta_arg_of_pericenter": 314.3681,
        "meta_mean_anomaly": 45.5846,
        "meta_ephemeris_type": 0,
        "meta_classification_type": "U",
        "meta_norad_cat_id": 35065,
        "meta_element_set_no": 999,
        "meta_rev_at_epoch": 68388,
        "meta_bstar": 0.00034144119,
        "meta_mean_motion_dot": 1.186e-05,
        "meta_mean_motion_ddot": 0,
        "tle_line1": "1 35065U 93036AHU 25349.31441639  .00001186  00000+0  34144-3 0  9998",
        "tle_line2": "2 35065  74.0190 189.5298 0019905 314.3681  45.5846 14.45733893683886"
      },
      "geometry": {
        "type": "Point",
        "coordinates": [
          -179.2503861214195,
          -19.478376431497995
        ]
      }
    }
  ]
}